COSMO-SKYMED 1          
1 31598U 07023A   26197.14102175  .00001407  00000+0  12681-3 0  9996
2 31598  97.8846  29.2419 0001508 102.7736 257.3654 14.97222020 34128
COSMOS 2428             
1 31792U 07029A   26196.53283664  .00000244  00000+0  15641-3 0  9990
2 31792  70.9381 294.9624 0007203  80.5752 279.6183 14.12934606982154
SL-16 R/B               
1 31793U 07029B   26197.22906367  .00000220  00000+0  13887-3 0  9994
2 31793  70.9744 262.1795 0001940 256.5188 120.3646 14.14852236983555
KORONAS-FOTON           
1 33504U 09003A   26196.88082473  .00007914  00000+0  15934-3 0  9996
2 33504  82.4311 142.3153 0012119  60.3216 299.9238 15.46309035965533
CZ-2C R/B               
1 37731U 11030B   26196.88014811  .00000468  00000+0  65325-4 0  9993
2 37731  97.8670 151.7525 0050797 293.8643 124.8401 14.81533069809073
H-2A R/B                
1 38341U 12025E   26196.92178222  .00000521  00000+0  52125-4 0  9992
2 38341  98.4847 174.4421 0042533 252.6414 107.0151 14.95838466767385
SHIJIAN-16 (SJ-16)      
1 39358U 13057A   26197.19458456  .00001363  00000+0  13470-3 0  9991
2 39358  74.9744 301.7411 0015753 162.3513 197.8226 14.92675228690673
SL-4 R/B                
1 39679U 14021B   26197.15799632  .00005027  00000+0  10807-3 0  9991
2 39679  51.6065  68.7835 0089559 212.0367 147.5156 15.42494497676088
ALOS-2                  
1 39766U 14029A   26197.22130074  .00000339  00000+0  52308-4 0  9997
2 39766  97.9235 293.9696 0001573  92.0748 268.0643 14.79467160655873
YAOGAN-29               
1 41038U 15069A   26197.18885965  .00000561  00000+0  75507-4 0  9991
2 41038  98.0016 225.8661 0000642  14.8615 345.2617 14.83108854574926
ASTRO-H (HITOMI)        
1 41337U 16012A   26197.17446531  .00001225  00000+0  66541-4 0  9999
2 41337  30.9979 246.9619 0009660 185.1656 174.8883 15.10634673571678
HXMT (HUIYAN)           
1 42758U 17034A   26197.00916941  .00002239  00000+0  11623-3 0  9997
2 42758  43.0154  22.5259 0032202 325.8527  34.0250 15.18692866502048
SAOCOM 1A               
1 43641U 18076A   26197.16558531  .00000175  00000+0  28514-4 0  9995
2 43641  97.8880  23.4927 0001479  85.0188 275.1194 14.82148405420392
H-2A R/B                
1 43682U 18084L   26197.12978191  .00011187  00000+0  22821-3 0  9992
2 43682  98.8528  82.3652 0020525 297.1996  62.7156 15.46223656425590
SAOCOM 1B               
1 46265U 20059A   26197.19678219 -.00000074  00000+0 -27186-5 0  9998
2 46265  97.8883  22.6196 0001493  83.5223 276.6160 14.82157206317784
CSS (TIANHE)            
1 48274U 21035A   26196.53543323  .00001219  00000+0  20014-4 0  9991
2 48274  41.4690 149.7716 0002229 300.3824  59.6794 15.58093729297592
COSMOS 2550             
1 48865U 21056A   26197.17215824  .00002622  00000+0  85486-4 0  9996
2 48865  67.1435  12.2277 0008517 270.1804  89.8375 15.33833184283162
CZ-2C R/B               
1 52794U 22058K   26196.50200512  .00027038  00000+0  28016-3 0  9992
2 52794  50.1855  15.9607 0030134  23.9117 336.3250 15.63873458230079
CZ-2C R/B               
1 54039U 22132E   26197.02802968  .00047469  00000+0  31820-3 0  9997
2 54039  97.2889 205.4165 0009310 338.1148  21.9719 15.75069223210484
GSLV R/B                
1 54149U 22138AN  26197.18924308  .00001339  00000+0  11213-3 0  9995
2 54149  87.3817 123.2457 0023431  48.9527 311.3725 14.97384955203159
XRISM                   
1 57800U 23137A   26197.22612222  .00002044  00000+0  10846-3 0  9991
2 57800  31.0008 171.4636 0007892 256.3423 103.6337 15.12673133157269
ACS3                    
1 59588U 24077B   26196.75626728  .00003353  00000+0  23387-2 0  9990
2 59588  97.1742 109.2138 0126330  36.0393 324.9210 13.95277532112021
SPACEMOBILE-003         
1 61045U 24163A   26197.19917604  .00000954  00000+0  57482-4 0  9991
2 61045  52.9668 176.0266 0004707 196.8318 163.2521 15.20707297102188
SPACEMOBILE-005         
1 61046U 24163B   26197.11689142  .00002015  00000+0  10509-3 0  9995
2 61046  52.9763 176.3550 0008666 198.3966 161.6716 15.20721056102163
SPACEMOBILE-001         
1 61047U 24163C   26197.11522354  .00000080  00000+0  18319-4 0  9995
2 61047  52.9730 176.0724 0007146 196.3866 163.6898 15.20741960102166
SPACEMOBILE-002         
1 61048U 24163D   26197.23050697 -.00000792  00000+0 -20798-4 0  9991
2 61048  52.9781 175.5821 0005878 195.8282 164.2529 15.20777977102188
SPACEMOBILE-004         
1 61049U 24163E   26196.62160951  .00012160  00000+0  55841-3 0  9995
2 61049  52.9675 178.1586 0006579 225.4338 134.6120 15.20780797102091
CZ-8A R/B               
1 66004U 25231K   26196.56087171 -.00000043  00000+0  43431-4 0  9994
2 66004  50.0042 278.6032 0116565 323.8982  35.4104 14.30162280 39002
SZ-21 MODULE            
1 66515U 25246C   26196.95471448  .00035292  00000+0  19466-3 0  9997
2 66515  41.4721 127.8201 0008592 225.8060 134.2080 15.78866927 38280
SPACEMOBILE-006         
1 67232U 25309A   26196.34249029  .00000702  00000+0  48789-4 0  9994
2 67232  52.9937 202.6601 0010057 215.7672 144.2649 15.18653983 30874
